ONEWEB-0249             
1 48967U 21060A   25078.59027447  .00000032  00000+0  50943-4 0  9992
2 48967  87.9085 319.3986 0001614  78.6235 281.5077 13.16592456179790
ONEWEB-0250             
1 48968U 21060B   25078.60548456  .00000062  00000+0  11055-3 0  9996
2 48968  87.9082 318.6386 0002016  46.4041 313.7262 13.25705724179988
ONEWEB-0252             
1 48970U 21060D   25078.62193671 -.00000076  00000+0 -23243-3 0  9995
2 48970  87.9083 319.3856 0001914  90.7112 269.4238 13.16596449179846
ONEWEB-0253             
1 48971U 21060E   25078.23086871 -.00000318  00000+0 -86657-3 0  9993
2 48971  87.9084 319.4694 0001911  75.4956 284.6387 13.16594571179727
ONEWEB-0254             
1 48972U 21060F   25078.62036714 -.00000074  00000+0 -22687-3 0  9990
2 48972  87.9083 319.3748 0001891  66.8888 293.2442 13.16594169179777
ONEWEB-0255             
1 48973U 21060G   25078.20236404 -.00000036  00000+0 -12799-3 0  9994
2 48973  87.9084 319.4913 0001815  73.7747 286.3584 13.16597228179792
ONEWEB-0256             
1 48974U 21060H   25078.15250699  .00000110  00000+0  25294-3 0  9996
2 48974  87.9088 319.5134 0001789  86.0382 274.0953 13.16593554181048
ONEWEB-0257             
1 48975U 21060J   25078.18495955  .00000159  00000+0  38159-3 0  9993
2 48975  87.9083 319.4701 0001939  78.4108 281.7241 13.16592767179712
